CORAL                   
1 67684U 98067YA  26095.59926702  .00102754  00000+0  12636-2 0  9991
2 67684  51.6286 296.8523 0013709 276.0904  83.8527 15.59334849  8983
GXIBA-1                 
1 67685U 98067YB  26095.54880757  .00052226  00000+0  76762-3 0  9995
2 67685  51.6303 298.0165 0012580 282.5760  77.3823 15.54864526  8968
UITMSAT-2               
1 67686U 98067YC  26095.59318773  .00064965  00000+0  91269-3 0  9997
2 67686  51.6300 297.5650 0009602 257.2725 102.7193 15.56037325  8975
HMU-SAT2                
1 67687U 98067YD  26094.78362938  .00054021  00000+0  80536-3 0  9997
2 67687  51.6310 301.9093 0009085 256.2021 103.7959 15.54504888  8760
LEOPARD                 
1 67688U 98067YE  26095.60225662  .00058264  00000+0  83629-3 0  9991
2 67688  51.6301 297.6258 0009308 257.8791 102.1158 15.55505012  8893
CREW DRAGON 12          
1 67796U 26031A   26095.55331950  .00008543  00000+0  16420-3 0  9995
2 67796  51.6328 299.5432 0006351 274.8255  85.2008 15.48786980560475
PROGRESS-MS 33          
1 68319U 26058A   26095.55331950  .00008543  00000+0  16420-3 0  9996
2 68319  51.6328 299.5432 0006351 274.8255  85.2008 15.48786980  1893
